{"type": "FeatureCollection", "features": [ {"type": "Feature", "properties": {"norad_id": 34976, "name": "COSMOS 2251 DEB", "group": "cosmos-2251-debris", "lat": 72.69011514841827, "lon": 68.27003707389916, "alt_km": 635.7344012701842, "timestamp": "2025-12-08T08:59:01.162173+00:00", "meta": {"OBJECT_NAME": "COSMOS 2251 DEB", "OBJECT_ID": "1993-036AFF", "EPOCH": "2025-12-07T04:58:26.927040", "MEAN_MOTION": 14.76379192, "ECCENTRICITY": 0.00478535, "INCLINATION": 74.0577, "RA_OF_ASC_NODE": 317.071, "ARG_OF_PERICENTER": 4.9947, "MEAN_ANOMALY": 10.8679, "EPHEMERIS_TYPE": 0, "CLASSIFICATION_TYPE": "U", "NORAD_CAT_ID": 34976, "ELEMENT_SET_NO": 999, "REV_AT_EPOCH": 88192, "BSTAR": 0.0023287343, "MEAN_MOTION_DOT": 0.00016492, "MEAN_MOTION_DDOT": 0}, "tle": {"line1": "1 34976U 93036AFF 25341.20725610  .00016492  00000+0  23287-2 0  9993", "line2": "2 34976  74.0577 317.0710 0047853   4.9947  10.8679 14.76379192881928"}}, "geometry": {"type": "Point", "coordinates": [68.27003707389916, 72.69011514841827]}}, {"type": "Feature", "properties": {"norad_id": 34979, "name": "COSMOS 2251 DEB", "group": "cosmos-2251-debris", "lat": 70.4953470918778, "lon": 41.95792541832105, "alt_km": 634.3152757358175, "timestamp": "2025-12-08T08:59:01.162184+00:00", "meta": {"OBJECT_NAME": "COSMOS 2251 DEB", "OBJECT_ID": "1993-036AFJ", "EPOCH": "2025-12-07T19:32:39.272352", "MEAN_MOTION": 14.79200271, "ECCENTRICITY": 0.00491317, "INCLINATION": 74.0405, "RA_OF_ASC_NODE": 276.9519, "ARG_OF_PERICENTER": 355.9443, "MEAN_ANOMALY": 4.1327, "EPHEMERIS_TYPE": 0, "CLASSIFICATION_TYPE": "U", "NORAD_CAT_ID": 34979, "ELEMENT_SET_NO": 999, "REV_AT_EPOCH": 88147, "BSTAR": 0.0023230894, "MEAN_MOTION_DOT": 0.00017612, "MEAN_MOTION_DDOT": 0}, "tle": {"line1": "1 34979U 93036AFJ 25341.81434343  .00017612  00000+0  23231-2 0  9997", "line2": "2 34979  74.0405 276.9519 0049131 355.9443   4.1327 14.79200271881472"}}, "geometry": {"type": "Point", "coordinates": [41.95792541832105, 70.4953470918778]}}, {"type": "Feature", "properties": {"norad_id": 34990, "name": "COSMOS 2251 DEB", "group": "cosmos-2251-debris", "lat": 60.281093931959695, "lon": -70.49624483216175, "alt_km": 746.9969458884925, "timestamp": "2025-12-08T08:59:01.162194+00:00", "meta": {"OBJECT_NAME": "COSMOS 2251 DEB", "OBJECT_ID": "1993-036AFN", "EPOCH": "2025-12-07T01:03:28.213920", "MEAN_MOTION": 14.42350123, "ECCENTRICITY": 0.00162731, "INCLINATION": 74.0455, "RA_OF_ASC_NODE": 261.8923, "ARG_OF_PERICENTER": 325.0179, "MEAN_ANOMALY": 34.9906, "EPHEMERIS_TYPE": 0, "CLASSIFICATION_TYPE": "U", "NORAD_CAT_ID": 34990, "ELEMENT_SET_NO": 999, "REV_AT_EPOCH": 87264, "BSTAR": 0.00072596004, "MEAN_MOTION_DOT": 2.377e-05, "MEAN_MOTION_DDOT": 0}, "tle": {"line1": "1 34990U 93036AFN 25341.04407655  .00002377  00000+0  72596-3 0  9992", "line2": "2 34990  74.0455 261.8923 0016273 325.0179  34.9906 14.42350123872642"}}, "geometry": {"type": "Point", "coordinates": [-70.49624483216175, 60.281093931959695]}}, {"type": "Feature", "properties": {"norad_id": 34997, "name": "COSMOS 2251 DEB", "group": "cosmos-2251-debris", "lat": 0.41992588267977504, "lon": 139.2931892263675, "alt_km": 772.7779489038467, "timestamp": "2025-12-08T08:59:01.162204+00:00", "meta": {"OBJECT_NAME": "COSMOS 2251 DEB", "OBJECT_ID": "1993-036AFV", "EPOCH": "2025-12-07T05:34:12.850752", "MEAN_MOTION": 14.45441909, "ECCENTRICITY": 0.00980928, "INCLINATION": 73.8797, "RA_OF_ASC_NODE": 321.5637, "ARG_OF_PERICENTER": 297.5324, "MEAN_ANOMALY": 61.5891, "EPHEMERIS_TYPE": 0, "CLASSIFICATION_TYPE": "U", "NORAD_CAT_ID": 34997, "ELEMENT_SET_NO": 999, "REV_AT_EPOCH": 70667, "BSTAR": 0.0028258875, "MEAN_MOTION_DOT": 0.00010545, "MEAN_MOTION_DDOT": 0}, "tle": {"line1": "1 34997U 93036AFV 25341.23209318  .00010545  00000+0  28259-2 0  9998", "line2": "2 34997  73.8797 321.5637 0098092 297.5324  61.5891 14.45441909706679"}}, "geometry": {"type": "Point", "coordinates": [139.2931892263675, 0.41992588267977504]}}, {"type": "Feature", "properties": {"norad_id": 34998, "name": "COSMOS 2251 DEB", "group": "cosmos-2251-debris", "lat": 0.8888650542533377, "lon": 168.4399100596149, "alt_km": 720.4325440520106, "timestamp": "2025-12-08T08:59:01.162215+00:00", "meta": {"OBJECT_NAME": "COSMOS 2251 DEB", "OBJECT_ID": "1993-036AFW", "EPOCH": "2025-12-06T14:10:19.581024", "MEAN_MOTION": 14.49241816, "ECCENTRICITY": 0.00209325, "INCLINATION": 74.0093, "RA_OF_ASC_NODE": 171.5347, "ARG_OF_PERICENTER": 317.8049, "MEAN_ANOMALY": 100.156, "EPHEMERIS_TYPE": 0, "CLASSIFICATION_TYPE": "U", "NORAD_CAT_ID": 34998, "ELEMENT_SET_NO": 999, "REV_AT_EPOCH": 87331, "BSTAR": 0.00096729331, "MEAN_MOTION_DOT": 3.671e-05, "MEAN_MOTION_DDOT": 0}, "tle": {"line1": "1 34998U 93036AFW 25340.59050441  .00003671  00000+0  96729-3 0  9998", "line2": "2 34998  74.0093 171.5347 0020932 317.8049 100.1560 14.49241816873319"}}, "geometry": {"type": "Point", "coordinates": [168.4399100596149, 0.8888650542533377]}}, {"type": "Feature", "properties": {"norad_id": 35000, "name": "COSMOS 2251 DEB", "group": "cosmos-2251-debris", "lat": -48.46409300103026, "lon": -170.8930487068577, "alt_km": 341.89434162233556, "timestamp": "2025-12-08T08:59:01.162225+00:00", "meta": {"OBJECT_NAME": "COSMOS 2251 DEB", "OBJECT_ID": "1993-036AFY", "EPOCH": "2025-12-07T01:14:56.354496", "MEAN_MOTION": 15.76392839, "ECCENTRICITY": 0.00108197, "INCLINATION": 73.9998, "RA_OF_ASC_NODE": 211.0382, "ARG_OF_PERICENTER": 177.6296, "MEAN_ANOMALY": 182.4984, "EPHEMERIS_TYPE": 0, "CLASSIFICATION_TYPE": "U", "NORAD_CAT_ID": 35000, "ELEMENT_SET_NO": 999, "REV_AT_EPOCH": 88425, "BSTAR": 0.0077836356, "MEAN_MOTION_DOT": 0.01383659, "MEAN_MOTION_DDOT": 0}, "tle": {"line1": "1 35000U 93036AFY 25341.05204114  .01383659  00000+0  77836-2 0  9998", "line2": "2 35000  73.9998 211.0382 0010819 177.6296 182.4984 15.76392839884255"}}, "geometry": {"type": "Point", "coordinates": [-170.8930487068577, -48.46409300103026]}}, {"type": "Feature", "properties": {"norad_id": 35012, "name": "COSMOS 2251 DEB", "group": "cosmos-2251-debris", "lat": 31.923693551054885, "lon": 130.16842678322988, "alt_km": 777.0989896867823, "timestamp": "2025-12-08T08:59:01.162236+00:00", "meta": {"OBJECT_NAME": "COSMOS 2251 DEB", "OBJECT_ID": "1993-036AFZ", "EPOCH": "2025-12-07T16:13:09.050016", "MEAN_MOTION": 14.45538484, "ECCENTRICITY": 0.0081653, "INCLINATION": 74.0196, "RA_OF_ASC_NODE": 121.1873, "ARG_OF_PERICENTER": 262.396, "MEAN_ANOMALY": 96.7918, "EPHEMERIS_TYPE": 0, "CLASSIFICATION_TYPE": "U", "NORAD_CAT_ID": 35012, "ELEMENT_SET_NO": 999, "REV_AT_EPOCH": 87488, "BSTAR": 0.00032182606, "MEAN_MOTION_DOT": 1.154e-05, "MEAN_MOTION_DDOT": 0}, "tle": {"line1": "1 35012U 93036AFZ 25341.67579919  .00001154  00000+0  32183-3 0  9990", "line2": "2 35012  74.0196 121.1873 0081653 262.3960  96.7918 14.45538484874885"}}, "geometry": {"type": "Point", "coordinates": [130.16842678322988, 31.923693551054885]}}, {"type": "Feature", "properties": {"norad_id": 35014, "name": "COSMOS 2251 DEB", "group": "cosmos-2251-debris", "lat": 33.433422393768126, "lon": 63.011470696726924, "alt_km": 647.895445925983, "timestamp": "2025-12-08T08:59:01.162246+00:00", "meta": {"OBJECT_NAME": "COSMOS 2251 DEB", "OBJECT_ID": "1993-036AGB", "EPOCH": "2025-12-06T22:38:32.273376", "MEAN_MOTION": 14.75000144, "ECCENTRICITY": 0.00077244, "INCLINATION": 73.9998, "RA_OF_ASC_NODE": 54.8925, "ARG_OF_PERICENTER": 229.6531, "MEAN_ANOMALY": 130.3968, "EPHEMERIS_TYPE": 0, "CLASSIFICATION_TYPE": "U", "NORAD_CAT_ID": 35014, "ELEMENT_SET_NO": 999, "REV_AT_EPOCH": 71251, "BSTAR": 0.0025951547, "MEAN_MOTION_DOT": 0.00017481, "MEAN_MOTION_DDOT": 0}, "tle": {"line1": "1 35014U 93036AGB 25340.94342909  .00017481  00000+0  25952-2 0  9993", "line2": "2 35014  73.9998  54.8925 0007724 229.6531 130.3968 14.75000144712513"}}, "geometry": {"type": "Point", "coordinates": [63.011470696726924, 33.433422393768126]}}, {"type": "Feature", "properties": {"norad_id": 35015, "name": "COSMOS 2251 DEB", "group": "cosmos-2251-debris", "lat": 30.163775808287003, "lon": 53.29490382321029, "alt_km": 690.9162917290032, "timestamp": "2025-12-08T08:59:01.162257+00:00", "meta": {"OBJECT_NAME": "COSMOS 2251 DEB", "OBJECT_ID": "1993-036AGC", "EPOCH": "2025-12-07T11:32:32.841024", "MEAN_MOTION": 14.46831522, "ECCENTRICITY": 0.00741378, "INCLINATION": 73.9484, "RA_OF_ASC_NODE": 244.6046, "ARG_OF_PERICENTER": 114.9032, "MEAN_ANOMALY": 61.5806, "EPHEMERIS_TYPE": 0, "CLASSIFICATION_TYPE": "U", "NORAD_CAT_ID": 35015, "ELEMENT_SET_NO": 999, "REV_AT_EPOCH": 65364, "BSTAR": 0.0013541762, "MEAN_MOTION_DOT": 5.055e-05, "MEAN_MOTION_DDOT": 0}, "tle": {"line1": "1 35015U 93036AGC 25341.48093566  .00005055  00000+0  13542-2 0  9992", "line2": "2 35015  73.9484 244.6046 0074137 114.9032  61.5806 14.46831522653645"}}, "geometry": {"type": "Point", "coordinates": [53.29490382321029, 30.163775808287003]}}, {"type": "Feature", "properties": {"norad_id": 35016, "name": "COSMOS 2251 DEB", "group": "cosmos-2251-debris", "lat": -3.899221210973285, "lon": -58.64693895315572, "alt_km": 836.2878377494881, "timestamp": "2025-12-08T08:59:01.162268+00:00", "meta": {"OBJECT_NAME": "COSMOS 2251 DEB", "OBJECT_ID": "1993-036AGD", "EPOCH": "2025-12-07T21:26:03.936768", "MEAN_MOTION": 14.35043899, "ECCENTRICITY": 0.01147479, "INCLINATION": 73.9297, "RA_OF_ASC_NODE": 303.3665, "ARG_OF_PERICENTER": 221.3618, "MEAN_ANOMALY": 168.7132, "EPHEMERIS_TYPE": 0, "CLASSIFICATION_TYPE": "U", "NORAD_CAT_ID": 35016, "ELEMENT_SET_NO": 999, "REV_AT_EPOCH": 86713, "BSTAR": 0.00057038363, "MEAN_MOTION_DOT": 1.723e-05, "MEAN_MOTION_DDOT": 0}, "tle": {"line1": "1 35016U 93036AGD 25341.89310112  .00001723  00000+0  57038-3 0  9994", "line2": "2 35016  73.9297 303.3665 0114747 221.3618 168.7132 14.35043899867136"}}, "geometry": {"type": "Point", "coordinates": [-58.64693895315572, -3.899221210973285]}}]}